NORAD_CAT_ID,OBJECT_NAME,OBJECT_TYPE,EPOCH,MEAN_MOTION,ECCENTRICITY,INCLINATION,RA_OF_ASC_NODE,ARG_OF_PERICENTER,MEAN_ANOMALY,BSTAR,MEAN_MOTION_DOT,MEAN_MOTION_DDOT,TLE_LINE0,TLE_LINE1,TLE_LINE2,SEMIMAJOR_AXIS,PERIOD,APOGEE,PERIGEE,DECAYED
51720.0,STARLINK-3526,PAYLOAD,2024-08-11 18:06:35,15.08840163,0.0001669,53.2179,30.0729,87.4826,272.6357,0.00011941,1.613e-05,0.0,0 STARLINK-3526,1 51720U 22016G   24224.75457981  .00001613  00000-0  11941-3 0  9996,2 51720  53.2179  30.0729 0001669  87.4826 272.6357 15.08840163137685,6917.88,95.438,540.899,538.59,0.0
51720.0,STARLINK-3526,PAYLOAD,2024-08-12 03:38:54,15.08845843,0.0002947,53.218,28.2911,98.0783,262.0544,4.0338e-05,3.54e-06,0.0,0 STARLINK-3526,1 51720U 22016G   24225.15201523  .00000354  00000-0  40338-4 0  9994,2 51720  53.2180  28.2911 0002947  98.0783 262.0544 15.08845843137747,6917.863,95.437,541.766,537.689,0.0
51720.0,STARLINK-3526,PAYLOAD,2024-08-12 11:35:50,15.08822507,0.0001696,53.2187,26.8066,106.0349,254.083,-0.00014184,-2.544e-05,0.0,0 STARLINK-3526,1 51720U 22016G   24225.48322656 -.00002544  00000-0 -14184-3 0  9995,2 51720  53.2187  26.8066 0001696 106.0349 254.0830 15.08822507137793,6917.934,95.439,540.972,538.626,0.0
51720.0,STARLINK-3526,PAYLOAD,2024-08-12 19:32:45,15.08852506,0.0001369,53.2186,25.3172,102.6484,257.4662,0.00029008,4.333e-05,0.0,0 STARLINK-3526,1 51720U 22016G   24225.81441324  .00004333  00000-0  29008-3 0  9993,2 51720  53.2186  25.3172 0001369 102.6484 257.4662 15.08852506137841,6917.842,95.437,540.654,538.76,0.0
51720.0,STARLINK-3526,PAYLOAD,2024-08-13 03:29:38,15.08902008,3.45e-05,53.2187,23.8297,54.8024,305.3,0.001053,0.00016539,0.0,0 STARLINK-3526,1 51720U 22016G   24226.14558273  .00016539  00000-0  10530-2 0  9992,2 51720  53.2187  23.8297 0000345  54.8024 305.3000 15.08902008137891,6917.691,95.434,539.795,539.317,0.0
51720.0,STARLINK-3526,PAYLOAD,2024-08-13 11:26:36,15.08827946,0.0002208,53.222,22.3472,98.041,262.0833,-0.00030852,-5.194e-05,0.0,0 STARLINK-3526,1 51720U 22016G   24226.47681409 -.00005194  00000-0 -30852-3 0  9993,2 51720  53.2220  22.3472 0002208  98.0410 262.0833 15.08827946137943,6917.917,95.438,541.31,538.255,0.0
51720.0,STARLINK-3526,PAYLOAD,2024-08-13 19:23:32,15.0883006,0.0001769,53.2159,20.857,77.9447,282.1743,-0.00027351,-4.637e-05,0.0,0 STARLINK-3526,1 51720U 22016G   24226.80801410 -.00004637  00000-0 -27351-3 0  9997,2 51720  53.2159  20.8570 0001769  77.9447 282.1743 15.08830060136935,6917.911,95.438,541.0,538.552,0.0
51720.0,STARLINK-3526,PAYLOAD,2024-08-14 03:20:27,15.08837441,0.000169,53.2178,19.3711,83.6694,276.4491,-0.00016069,-2.844e-05,0.0,0 STARLINK-3526,1 51720U 22016G   24227.13921090 -.00002844  00000-0 -16069-3 0  9993,2 51720  53.2178  19.3711 0001690  83.6694 276.4491 15.08837441138047,6917.888,95.438,540.922,538.584,0.0
51720.0,STARLINK-3526,PAYLOAD,2024-08-14 14:28:10,15.08821948,0.0001281,53.2163,17.2906,95.2344,264.8795,-0.00017788,-3.116e-05,0.0,0 STARLINK-3526,1 51720U 22016G   24227.60289974 -.00003116  00000-0 -17788-3 0  9995,2 51720  53.2163  17.2906 0001281  95.2344 264.8795 15.08821948137054,6917.936,95.439,540.687,538.914,0.0
51720.0,STARLINK-3526,PAYLOAD,2024-08-14 17:38:56,15.08828732,0.0001164,53.2172,16.6953,85.1997,274.9129,-0.00017328,-3.044e-05,0.0,0 STARLINK-3526,1 51720U 22016G   24227.73537843 -.00003044  00000-0 -17328-3 0  9990,2 51720  53.2172  16.6953 0001164  85.1997 274.9129 15.08828732138132,6917.915,95.438,540.585,538.975,0.0
51720.0,STARLINK-3526,PAYLOAD,2024-08-15 03:11:15,15.08840361,0.0001189,53.2157,14.9101,87.5353,272.5775,-1.9803e-05,-6.03e-06,0.0,0 STARLINK-3526,1 51720U 22016G   24228.13281586 -.00000603  00000-0 -19803-4 0  9994,2 51720  53.2157  14.9101 0001189  87.5353 272.5775 15.08840361138199,6917.879,95.438,540.567,538.922,0.0
51720.0,STARLINK-3526,PAYLOAD,2024-08-15 17:29:44,15.08835838,0.0001546,53.2163,12.2337,87.1493,272.9676,0.00031692,4.759e-05,0.0,0 STARLINK-3526,1 51720U 22016G   24228.72898497  .00004759  00000-0  31692-3 0  9997,2 51720  53.2163  12.2337 0001546  87.1493 272.9676 15.08835838138283,6917.893,95.438,540.828,538.689,0.0
51720.0,STARLINK-3526,PAYLOAD,2024-08-16 03:02:02,15.08847887,0.0001517,53.2176,10.451,84.0359,276.0806,0.00052283,8.044e-05,0.0,0 STARLINK-3526,1 51720U 22016G   24229.12642235  .00008044  00000-0  52283-3 0  9999,2 51720  53.2176  10.4510 0001517  84.0359 276.0806 15.08847887138349,6917.856,95.437,540.771,538.672,0.0
51720.0,STARLINK-3526,PAYLOAD,2024-08-16 18:55:54,15.08840009,0.000177,53.2169,7.4725,115.0727,245.0449,0.00018623,2.677e-05,0.0,0 STARLINK-3526,1 51720U 22016G   24229.78882527  .00002677  00000-0  18623-3 0  9997,2 51720  53.2169   7.4725 0001770 115.0727 245.0449 15.08840009138449,6917.88,95.438,540.97,538.521,0.0
51720.0,STARLINK-3526,PAYLOAD,2024-08-18 12:15:56,15.0884264,0.0001872,53.2188,359.7431,107.828,252.2916,0.00011703,1.575e-05,0.0,0 STARLINK-3526,1 51720U 22016G   24231.51106581  .00001575  00000-0  11703-3 0  9998,2 51720  53.2188 359.7431 0001872 107.8280 252.2916 15.08842640138704,6917.872,95.437,541.032,538.442,0.0
51720.0,STARLINK-3526,PAYLOAD,2024-08-18 18:37:28,15.08844278,0.0001673,53.219,358.5528,103.2729,256.845,0.0001799,2.577e-05,0.0,0 STARLINK-3526,1 51720U 22016G   24231.77602488  .00002577  00000-0  17990-3 0  9990,2 51720  53.2190 358.5528 0001673 103.2729 256.8450 15.08844278137686,6917.867,95.437,540.89,538.575,0.0
51720.0,STARLINK-3526,PAYLOAD,2024-08-19 18:28:16,15.08831871,0.00027,53.2174,354.0864,141.1729,218.9457,-1.5456e-05,-5.34e-06,0.0,0 STARLINK-3526,1 51720U 22016G   24232.76963169 -.00000534  00000-0 -15456-4 0  9995,2 51720  53.2174 354.0864 0002700 141.1729 218.9457 15.08831871138890,6917.905,95.438,541.638,537.902,0.0
51720.0,STARLINK-3526,PAYLOAD,2024-08-20 13:32:53,15.08841294,0.0001667,53.2189,350.5299,104.2695,255.8483,8.3539e-05,1.042e-05,0.0,0 STARLINK-3526,1 51720U 22016G   24233.56451141  .00001042  00000-0  83539-4 0  9996,2 51720  53.2189 350.5299 0001667 104.2695 255.8483 15.08841294139016,6917.876,95.437,540.895,538.588,0.0
51720.0,STARLINK-3526,PAYLOAD,2024-08-21 13:23:41,15.08838228,0.0001516,53.2187,346.0686,93.4886,266.628,6.1115e-05,6.85e-06,0.0,0 STARLINK-3526,1 51720U 22016G   24234.55811554  .00000685  00000-0  61115-4 0  9992,2 51720  53.2187 346.0686 0001516  93.4886 266.6280 15.08838228139162,6917.886,95.438,540.8,538.702,0.0
51720.0,STARLINK-3526,PAYLOAD,2024-08-21 14:59:04,15.0883715,0.0001349,53.2174,345.7706,86.1701,273.9445,2.5679e-05,1.21e-06,0.0,0 STARLINK-3526,1 51720U 22016G   24234.62435611  .00000121  00000-0  25679-4 0  9996,2 51720  53.2174 345.7706 0001349  86.1701 273.9445 15.08837150138117,6917.889,95.438,540.687,538.821,0.0
